AMC-1 (GE-1)            
1 24315U 96054A   22263.19209483  .00000060  00000+0  00000+0 0  9994
2 24315   5.8388  72.3306 0003062 113.0123 111.9795  1.00272407 95327
AMC-3 (GE-3)            
1 24936U 97050A   22263.49595579 -.00000265  00000+0  00000+0 0  9995
2 24936   4.7720  78.5751 0002818 109.9166 277.4281  1.00272624 91757
ASTRA 1G                
1 25071U 97076A   22263.21765993  .00000112  00000+0  00000+0 0  9993
2 25071   6.4568  67.5444 0003516 115.3432 273.9698  1.00273622 90848
ASTRA 2A                
1 25462U 98050A   22263.15348050  .00000064  00000+0  00000+0 0  9990
2 25462   3.6350  84.5386 0002985 111.6975 275.2507  1.00271281 88046
AMC-4 (GE-4)            
1 25954U 99060A   22262.68591035  .00000082  00000+0  00000+0 0  9998
2 25954   1.7516  90.7425 0002733  91.2267 288.6254  1.00273366 29853
NSS-11 (AAP-1)          
1 26554U 00059A   22262.81845139  .00000019  00000+0  00000+0 0  9997
2 26554   0.0053 209.4980 0002231 341.8728 277.9753  1.00273746 27598
AMC-6 (GE-6)            
1 26580U 00067A   22263.45558985  .00000099  00000+0  00000+0 0  9994
2 26580   0.0125 178.7670 0002787 359.7275 205.8309  1.00271471 80298
ASTRA 2D                
1 26638U 00081A   22262.64457387  .00000125  00000+0  00000+0 0  9998
2 26638   7.4888  59.6507 0001843 134.8824  59.7173  1.00270252 39205
AMC-8 (GE-8)            
1 26639U 00081B   22263.18958515  .00000082  00000+0  00000+0 0  9990
2 26639   2.6797  87.5472 0002391  44.3034 160.4788  1.00273117 79579
ASTRA 2C                
1 26853U 01025A   22263.49342791 -.00000263  00000+0  00000+0 0  9996
2 26853   4.7963  78.3788 0002915 114.7310 271.4243  1.00271140 77889
ASTRA 3A                
1 27400U 02015B   22262.49609638 -.00000208  00000+0  00000+0 0  9999
2 27400   7.5876  58.5337 0001793 144.3412 247.3449  1.00273902 75018
NSS-7                   
1 27414U 02019A   22262.78174580 -.00000162  00000+0  00000+0 0  9992
2 27414   6.1152  70.5175 0002358 121.7811  67.8003  1.00271224 74867
NSS-6                   
1 27603U 02057A   22262.82132900  .00000102  00000+0  00000+0 0  9992
2 27603   1.8432  90.5374 0003399  96.7764 297.5395  1.00271456 72341
AMC-11 (GE-11)          
1 28252U 04017A   22262.68591035  .00000063  00000+0  00000+0 0  9999
2 28252   0.0178 282.3808 0002687 265.7426 286.3785  1.00273660 67189
AMC-15                  
1 28446U 04041A   22263.47543872 -.00000095  00000+0  00000+0 0  9991
2 28446   0.0176 285.2338 0002671 255.9252 244.2955  1.00272187 65658
NSS-10 (AMC-12)         
1 28526U 05003A   22263.42162150 -.00000255  00000+0  00000+0 0  9998
2 28526   3.0160  86.3133 0002711  88.0498 299.2748  1.00276533 64623
ASTRA 1KR               
1 29055U 06012A   22262.84931693  .00000114  00000+0  00000+0 0  9991
2 29055   0.0393 268.0556 0004604 297.5934 118.0391  1.00274166 32020
AMC-18                  
1 29644U 06054B   22262.85257559 -.00000221  00000+0  00000+0 0  9994
2 29644   0.0124 178.6049 0002760  16.1251  27.9300  1.00268858 57843
ASTRA 1L                
1 31306U 07016A   22262.84931668  .00000114  00000+0  00000+0 0  9990
2 31306   0.0566 323.4288 0003143 269.5022  90.7398  1.00274204 31302
ASTRA 4A (SIRIUS 4)     
1 32299U 07057A   22263.15882873  .00000027  00000+0  00000+0 0  9998
2 32299   0.0067 191.8923 0002798 353.3903 235.7426  1.00271572 54266
AMC-21                  
1 33275U 08038B   22262.68669164  .00000030  00000+0  00000+0 0  9990
2 33275   0.0100 232.0081 0002497 321.6067 287.2657  1.00273045 51797
ASTRA 1M                
1 33436U 08057A   22262.76572316  .00000114  00000+0  00000+0 0  9994
2 33436   0.0115 176.3837 0005074 353.0476 124.0699  1.00275435 32022
CIEL-2                  
1 33453U 08063A   22263.46180619  .00000052  00000+0  00000+0 0  9990
2 33453   0.0112 161.2309 0002941  23.1083 212.4033  1.00271603 50436
NSS-9                   
1 33749U 09008A   22262.81984660  .00000066  00000+0  00000+0 0  9999
2 33749   0.0177 282.0706 0002141 256.5240 298.3199  1.00272119 49838
SES-7 (PROTOSTAR 2)     
1 34941U 09027A   22263.45065921 -.00000351  00000+0  00000+0 0  9994
2 34941   0.0427  88.5115 0002030 145.7966  35.5163  1.00270963 48910
NSS-12                  
1 36032U 09058A   22263.40466132  .00000066  00000+0  00000+0 0  9997
2 36032   0.0163 150.1714 0002730  43.0422   8.7346  1.00271445 47218
SES-1                   
1 36516U 10016A   22262.61972177 -.00000120  00000+0  00000+0 0  9995
2 36516   0.0435 298.4414 0002436 250.7842 291.3880  1.00271466 45344
ASTRA 3B                
1 36581U 10021A   22262.85276229  .00000131  00000+0  00000+0 0  9995
2 36581   0.0891  69.2969 0003344 110.5547 149.3812  1.00268334 45173
SES-3                   
1 37748U 11035A   22263.47699459 -.00000108  00000+0  00000+0 0  9995
2 37748   0.0372 340.6616 0002724 198.8350 248.5849  1.00272332 41003
ASTRA 1N                
1 37775U 11041A   22263.21765993  .00000114  00000+0  00000+0 0  9997
2 37775   0.0604 352.9711 0001735 143.8037 319.8816  1.00273756 40709
SES-2                   
1 37809U 11049A   22263.48672061 -.00000201  00000+0  00000+0 0  9993
2 37809   0.0151 160.0489 0002849  25.7389 261.7796  1.00268722 40304
QUETZSAT 1              
1 37826U 11054A   22263.00674149 -.00000248  00000+0  00000+0 0  9996
2 37826   0.0100 219.9935 0002743 323.6256 100.6925  1.00271031 40394
SES-4                   
1 38087U 12007A   22262.78174580 -.00000174  00000+0  00000+0 0  9991
2 38087   0.0073 132.3341 0002329  46.7912  78.9712  1.00270488 38533
SES-5                   
1 38652U 12036A   22263.15882873  .00000028  00000+0  00000+0 0  9991
2 38652   0.0668 293.8669 0002079 252.6054 234.7272  1.00272041 37375
ASTRA 2F                
1 38778U 12051A   22263.06924267  .00000144  00000+0  00000+0 0  9990
2 38778   0.0691 243.3522 0004251 327.4202 201.2732  1.00273717 36592
SES-6                   
1 39172U 13026A   22262.81229862 -.00000267  00000+0  00000+0 0  9990
2 39172   0.0495 303.0887 0002327 248.1950  59.3526  1.00273034 34023
O3B FM5                 
1 39188U 13031A   22262.62564541 -.00000028  00000+0  00000+0 0  9993
2 39188   0.0617  18.2830 0002604 163.9658 177.7521  5.00115350168675
O3B FM4                 
1 39189U 13031B   22262.68166971 -.00000028  00000+0  00000+0 0  9995
2 39189   0.0530 351.5580 0002560 190.3424 178.1008  5.00115876168691
O3B FM2                 
1 39190U 13031C   22263.37274671 -.00000027  00000+0  00000+0 0  9990
2 39190   0.0538 346.1884 0002584 195.2826 178.5304  5.00116907168772
O3B PFM                 
1 39191U 13031D   22262.59949211 -.00000028  00000+0  00000+0 0  9994
2 39191   0.0562  11.2532 0002644 167.6922 181.0573  5.00115766168305
ASTRA 2E                
1 39285U 13056A   22262.86715940  .00000144  00000+0  00000+0 0  9993
2 39285   0.0767 326.6965 0002783 216.0109 156.7017  1.00269829 32734
SES-8                   
1 39460U 13071A   22262.87987479 -.00000276  00000+0  00000+0 0  9991
2 39460   0.0455 257.5516 0001826 268.9661 244.0082  1.00272597 30729
ASTRA 5B                
1 39617U 14011B   22263.36368905  .00000149  00000+0  00000+0 0  9990
2 39617   0.0495 340.4065 0003497 204.0553 337.2027  1.00271184 31170
O3B FM3                 
1 40079U 14038A   22262.65426406 -.00000028  00000+0  00000+0 0  9992
2 40079   0.0547 359.6127 0004909 166.6072 193.7956  5.00115384144681
O3B FM7                 
1 40080U 14038B   22261.60088199 -.00000029  00000+0  00000+0 0  9992
2 40080   0.0575 356.0269 0001624 227.1143 136.8479  5.00115537149453
O3B FM6                 
1 40081U 14038C   22262.42682201 -.00000028  00000+0  00000+0 0  9997
2 40081   0.0538 358.9693 0002695 181.0257 180.0070  5.00115402149457
O3B FM8                 
1 40082U 14038D   22262.28085711 -.00000028  00000+0  00000+0 0  9995
2 40082   0.0523 355.9773 0002639 180.3225 183.7042  5.00115720149567
O3B FM10                
1 40348U 14083A   22262.70669666 -.00000028  00000+0  00000+0 0  9994
2 40348   0.0517   8.4209 0002630 170.6223 180.9594  5.00115200141533
O3B FM11                
1 40349U 14083B   22263.31982267 -.00000028  00000+0  00000+0 0  9998
2 40349   0.0565   7.9372 0002494 187.4915 164.5660  5.00115443141737
O3B FM12                
1 40350U 14083C   22262.34757863 -.00000028  00000+0  00000+0 0  9994
2 40350   0.0558   7.2696 0002747 174.5449 178.1866  5.00115298141549
O3B FM9                 
1 40351U 14083D   22262.77424824 -.00000028  00000+0  00000+0 0  9990
2 40351   0.0576   8.1059 0002605 173.4492 178.4461  5.00116230141712
ASTRA 2G                
1 40364U 14089A   22263.36368905  .00000144  00000+0  00000+0 0  9991
2 40364   0.0462 347.7014 0002114 110.8859  59.7594  1.00271428 28326
SES-9                   
1 41380U 16013A   22263.46021689 -.00000351  00000+0  00000+0 0  9996
2 41380   0.0411 283.2585 0001411 214.8692 135.1952  1.00271720 24053
SES-10                  
1 42432U 17017A   22263.10605139 -.00000278  00000+0  00000+0 0  9997
2 42432   0.0184 147.7876 0002718  38.1600 144.3139  1.00268905 20026
SES-15                  
1 42709U 17026A   22263.46089604  .00000054  00000+0  00000+0 0  9997
2 42709   0.0025 333.2174 0000274 241.5872 181.3121  1.00267497 20494
SES-11 (ECHOSTAR 105)   
1 42967U 17063A   22263.17984083 -.00000095  00000+0  00000+0 0  9993
2 42967   0.0369 278.8317 0002943 274.1379 125.8726  1.00272228 18100
SES-14                  
1 43175U 18012B   22262.81733512 -.00000284  00000+0  00000+0 0  9999
2 43175   0.0350 289.8453 0001078 258.1357  57.4644  1.00271678 17343
O3B FM15                
1 43231U 18024A   22262.84018560 -.00000028  00000+0  00000+0 0  9993
2 43231   0.0484   9.4749 0002920 172.3466 178.1796  5.00116087 82845
O3B FM16                
1 43232U 18024B   22262.69368502 -.00000028  00000+0  00000+0 0  9991
2 43232   0.0448  11.9250 0002895 170.0908 177.9851  5.00115939 82583
O3B FM14                
1 43233U 18024C   22262.73332483 -.00000028  00000+0  00000+0 0  9996
2 43233   0.0432  12.0740 0002741 172.1734 175.7524  5.00115338 82590
O3B FM13                
1 43234U 18024D   22262.58694554 -.00000028  00000+0  00000+0 0  9990
2 43234   0.0581  30.5429 0003694 156.9566 172.4970  5.00115109 82704
SES-12                  
1 43488U 18049A   22263.44804321 -.00000276  00000+0  00000+0 0  9994
2 43488   0.0297  71.3723 0001953 173.6886  10.5627  1.00272326 15715
O3B FM20                
1 44112U 19020A   22262.95992520 -.00000028  00000+0  00000+0 0  9998
2 44112   0.0514   7.8376 0003057 180.7002 171.4591  5.00115482 63304
O3B FM19                
1 44113U 19020B   22262.38705503 -.00000028  00000+0  00000+0 0  9999
2 44113   0.0698  21.8759 0001554 177.2890 160.8313  5.00115189 63066
O3B FM17                
1 44114U 19020C   22263.46701468 -.00000027  00000+0  00000+0 0  9995
2 44114   0.0370 350.1874 0003044 192.5509 177.2622  5.00115613 63329
O3B FM18                
1 44115U 19020D   22262.81386114 -.00000028  00000+0  00000+0 0  9992
2 44115   0.0517   8.0509 0002873 170.8097 181.1423  5.00115808 63281
SES-17                  
1 49332U 21095A   22263.49918348 -.00000278  00000+0  00000+0 0  9995
2 49332   0.0110 131.2784 0001041  59.6621 281.0435  1.00269595  4145
SES-22                  
1 52933U 22071A   22262.68591035  .00000082  00000+0  00000+0 0  9993
2 52933   0.0366 266.6448 0002719 303.9421 259.9147  1.00273269   856
